PERSEUS-M1              
1 40039U 14033AF  26163.08534369  .00001028  00000+0  97985-4 0  9995
2 40039  97.9645 107.1337 0010624 320.9367  39.1086 14.95617202649871
POLYITAN-1              
1 40042U 14033AJ  26163.02681846  .00017529  00000+0  55016-3 0  9997
2 40042  98.0947 188.8000 0008268 155.9203 204.2425 15.33075681652802
TIGRISAT                
1 40043U 14033AK  26163.19753014  .00001997  00000+0  23434-3 0  9994
2 40043  97.7821 313.3239 0050708  91.1559 269.5467 14.85144158644881
AEROCUBE 6A             
1 40045U 14033AM  26163.21445465  .00006338  00000+0  53248-3 0  9997
2 40045  97.7225 330.2162 0039243  34.7060 325.6711 14.98056330645879
AEROCUBE 6B             
1 40046U 14033AN  26163.28836082  .00006424  00000+0  51970-3 0  9990
2 40046  97.7230 330.0686 0038704  26.0824 334.2338 14.99523461646022
CANX-4                  
1 40055U 14034C   26163.22069505  .00000914  00000+0  12446-3 0  9996
2 40055  98.3129  38.3513 0013512  32.3628 327.8409 14.81256317643797
CANX-5                  
1 40056U 14034D   26163.21918588  .00000917  00000+0  12488-3 0  9999
2 40056  98.3132  38.3932 0013523  32.4578 327.7462 14.81273504634609
UKUBE-1                 
1 40074U 14037F   26163.27596000  .00009279  00000+0  52263-3 0  9994
2 40074  98.4233 166.0318 0002309 138.1037 222.0368 15.13478860647810
BRITE-PL2 (HEWELIUSZ)   
1 40119U 14049B   26163.28503995  .00001397  00000+0  13439-3 0  9994
2 40119  97.9092 275.2475 0015123 122.9628 237.3049 14.94579118640712
AEROCUBE 5C             
1 40965U 15058B   26162.60539087  .00002265  00000+0  20720-3 0  9996
2 40965  64.7678 279.9542 0130533  65.4583 296.0071 14.91428215364823
AEROCUBE 7              
1 40966U 15058C   26162.95196406  .00002935  00000+0  24156-3 0  9990
2 40966  64.7628 261.2129 0120257  63.7751 297.5666 14.95693064365179
FOX-1A (AO-85)          
1 40967U 15058D   26162.71824684  .00002264  00000+0  20997-3 0  9995
2 40967  64.7758 295.9784 0130128  58.7261 302.6519 14.90943463112758
SINOD-D 1               
1 40968U 15058E   26162.66312589  .00003121  00000+0  25567-3 0  9997
2 40968  64.7758 276.2111 0118713  55.2811 305.9416 14.95871014115835
SNAP-3 ALICE            
1 40970U 15058G   26163.30022692  .00129672  00000+0  16005-2 0  9991
2 40970  64.7489 120.8095 0029502  15.4406 344.7632 15.58984202116127
LMRST-SAT               
1 40971U 15058H   26163.07471549  .00002050  00000+0  19268-3 0  9990
2 40971  64.7764 291.1993 0131812  60.6174 300.8023 14.90567172112799
SNAP-3 EDDIE            
1 40972U 15058J   26163.29419034  .00133955  00000+0  15793-2 0  9993
2 40972  64.7415 111.5909 0029167  19.7126 340.5139 15.60180222118268
PROPCUBE 3              
1 40973U 15058K   26162.65434388  .00002641  00000+0  22563-3 0  9993
2 40973  64.7688 269.8219 0123773  62.0937 299.2645 14.94227092113979
BISONSAT                
1 40974U 15058L   26163.21801385  .00011119  00000+0  54055-3 0  9993
2 40974  64.7585 189.7091 0078593  49.3108 311.4810 15.16085435114869
SNAP-3 JIMI             
1 40975U 15058M   26163.26304134  .00004663  00000+0  32455-3 0  9995
2 40975  64.7650 235.3515 0105923  57.3687 303.7598 15.02258570113482
PROPCUBE 1 (FLORA)      
1 40976U 15058N   26162.89063981  .00002188  00000+0  21259-3 0  9996
2 40976  64.7752 311.6513 0130502  62.9948 298.4417 14.89197473115474
SINOD-D 3               
1 40977U 15058P   26162.75206796  .00003105  00000+0  26727-3 0  9990
2 40977  64.7732 292.7906 0118998  60.2941 300.9953 14.93982116113942
HORYU-4                 
1 41340U 16012D   26163.17820750  .00381515  49653-4  10938-2 0  9997
2 41340  30.9835 115.7146 0003837 236.1046 123.9250 15.91940402570010
RAVAN                   
1 41849U 16067B   26163.21570079  .00054541  00000+0  83402-3 0  9993
2 41849  97.9901  52.2155 0005128  45.4999 314.6671 15.54209764526924
CELTEE 1                
1 41850U 16067C   26162.61022158  .00004578  00000+0  21851-3 0  9993
2 41850  98.0686  28.7972 0000667 111.8339 248.2965 15.19627998525035
OPTICUBE 04             
1 41851U 16067D   26163.04176132  .00001665  00000+0  10764-3 0  9999
2 41851  98.0708  15.0575 0016726 131.5541 228.7124 15.09638667524398
AEROCUBE 8D             
1 41852U 16067E   26163.10111047  .00006976  00000+0  28844-3 0  9999
2 41852  98.0697  32.8860 0004413 135.8879 224.2709 15.24327821525295
AEROCUBE 8C             
1 41853U 16067F   26162.86439369  .00006970  00000+0  28604-3 0  9990
2 41853  98.0569  29.8659 0006786  83.4882 276.7126 15.24570430525250
CORVUS BC2              
1 42846U 17042X   26163.01326062  .00002927  00000+0  20306-3 0  9999
2 42846  97.4049 324.5650 0014193 126.6042 233.6494 15.06259757486289
CORVUS BC1              
1 42847U 17042Y   26163.27415569  .00004047  00000+0  27795-3 0  9993
2 42847  97.4080 325.6263 0013153 104.3164 255.9525 15.06432955486353
MAKERSAT 0              
1 43016U 17073D   26163.21598177  .00020758  00000+0  56646-3 0  9991
2 43016  97.4639  45.6969 0105465 291.0231  67.9755 15.31930480465707
